*******************************************************************************
Ephemeris / WWW_USER Mon Mar 24 11:04:37 2025 Pasadena, USA      / Horizons    
*******************************************************************************
Target body name: (2018 VC)                       {source: JPL#21}
Center body name: Earth (399)                     {source: DE441}
Center-site name: Mauna Kea
*******************************************************************************
Start time      : A.D. 2018-Aug-18 04:58:00.0000 UT      
Stop  time      : A.D. 2018-Aug-18 15:53:00.0000 UT      
Step-size       : 1 minutes
*******************************************************************************
Target pole/equ : undefined
Target radii    : undefined                                                    
Center geodetic : 204.5278, 19.8260847, 4.21024   {E-lon(deg),Lat(deg),Alt(km)}
Center cylindric: 204.5278, 6006.35451, 2151.0229 {E-lon(deg),Dxy(km),Dz(km)}
Center pole/equ : ITRF93                          {East-longitude positive}
Center radii    : 6378.137, 6378.137, 6356.752 km {Equator_a, b, pole_c}       
Target primary  : Sun
Vis. interferer : MOON (R_eq= 1737.400) km        {source: DE441}
Rel. light bend : Sun                             {source: DE441}
Rel. lght bnd GM: 1.3271E+11 km^3/s^2                                          
Small-body perts: Yes                             {source: SB441-N16}
Atmos refraction: NO (AIRLESS)
RA format       : HMS
Time format     : CAL 
Calendar mode   : Mixed Julian/Gregorian
RTS-only print  : NO       
EOP file        : eop.250321.p250617                                           
EOP coverage    : DATA-BASED 1962-JAN-20 TO 2025-MAR-21. PREDICTS-> 2025-JUN-16
Units conversion: 1 au= 149597870.700 km, c= 299792.458 km/s, 1 day= 86400.0 s 
Table cut-offs 1: Elevation (-90.0deg=NO ),Airmass (>38.000=NO), Daylight (YES)
Table cut-offs 2: Solar elongation (  0.0,180.0=NO ),Local Hour Angle( 0.0=NO )
Table cut-offs 3: RA/DEC angular rate (     0.0=NO )                           
*******************************************************************************
Initial IAU76/J2000 heliocentric ecliptic osculating elements (au, days, deg.):
  EPOCH=  2458962.5 ! 2020-Apr-23.00 (TDB)         Residual RMS= .087367       
   EC= .1691367762722357   QR= .9358500167919792   TP= 2458809.0997793972      
   OM= 36.58853997425776   W=  304.3228784920618   IN= 3.701146998496158       
  Equivalent ICRF heliocentric cartesian coordinates (au, au/d):
   X=-6.479543737333916E-01  Y= 9.538692942598190E-01  Z= 5.016232001756915E-01
  VX=-1.316843360643849E-02 VY=-5.467047892625660E-03 VZ=-2.149198049185293E-03
Asteroid physical parameters (km, seconds, rotational period in hours):        
   GM= n.a.                RAD= n.a.               ROTPER= n.a.                
   H= 26.34                G= .150                 B-V= n.a.                   
                           ALBEDO= n.a.            STYP= n.a.                  
*******************************************************************************
 Date__(UT)__HR:MN     R.A._________(ICRF)_________DEC
******************************************************
$$SOE
 2018-Aug-18 11:07     13 24 38.079251 -24 23 17.21413
 2018-Aug-18 11:08     13 24 38.164603 -24 23 18.00496
 2018-Aug-18 11:09     13 24 38.249989 -24 23 18.79599
 2018-Aug-18 11:10     13 24 38.335410 -24 23 19.58723
 2018-Aug-18 11:11     13 24 38.420865 -24 23 20.37869
 2018-Aug-18 11:12     13 24 38.506355 -24 23 21.17035
 2018-Aug-18 11:13     13 24 38.591878 -24 23 21.96222
 2018-Aug-18 11:14     13 24 38.677436 -24 23 22.75430
 2018-Aug-18 11:15     13 24 38.763027 -24 23 23.54660
 2018-Aug-18 11:16     13 24 38.848652 -24 23 24.33911
 2018-Aug-18 11:17     13 24 38.934310 -24 23 25.13184
 2018-Aug-18 11:18     13 24 39.020001 -24 23 25.92478
 2018-Aug-18 11:19     13 24 39.105726 -24 23 26.71793
 2018-Aug-18 11:20     13 24 39.191483 -24 23 27.51130
 2018-Aug-18 11:21     13 24 39.277273 -24 23 28.30489
 2018-Aug-18 11:22     13 24 39.363096 -24 23 29.09870
 2018-Aug-18 11:23     13 24 39.448951 -24 23 29.89273
 2018-Aug-18 11:24     13 24 39.534838 -24 23 30.68698
 2018-Aug-18 11:25     13 24 39.620757 -24 23 31.48144
 2018-Aug-18 11:26     13 24 39.706709 -24 23 32.27613
 2018-Aug-18 11:27     13 24 39.792692 -24 23 33.07105
 2018-Aug-18 11:28     13 24 39.878706 -24 23 33.86618
 2018-Aug-18 11:29     13 24 39.964752 -24 23 34.66154
 2018-Aug-18 11:30     13 24 40.050829 -24 23 35.45712
 2018-Aug-18 11:31     13 24 40.136937 -24 23 36.25293
 2018-Aug-18 11:32     13 24 40.223076 -24 23 37.04897
 2018-Aug-18 11:33     13 24 40.309245 -24 23 37.84523
 2018-Aug-18 11:34     13 24 40.395445 -24 23 38.64172
 2018-Aug-18 11:35     13 24 40.481675 -24 23 39.43844
 2018-Aug-18 11:36     13 24 40.567936 -24 23 40.23539
 2018-Aug-18 11:37     13 24 40.654226 -24 23 41.03257
 2018-Aug-18 11:38     13 24 40.740546 -24 23 41.82998
 2018-Aug-18 11:39     13 24 40.826896 -24 23 42.62762
 2018-Aug-18 11:40     13 24 40.913275 -24 23 43.42549
 2018-Aug-18 11:41     13 24 40.999683 -24 23 44.22360
 2018-Aug-18 11:42     13 24 41.086121 -24 23 45.02194
 2018-Aug-18 11:43     13 24 41.172587 -24 23 45.82051
 2018-Aug-18 11:44     13 24 41.259082 -24 23 46.61932
 2018-Aug-18 11:45     13 24 41.345606 -24 23 47.41837
 2018-Aug-18 11:46     13 24 41.432157 -24 23 48.21765
 2018-Aug-18 11:47     13 24 41.518737 -24 23 49.01717
 2018-Aug-18 11:48     13 24 41.605345 -24 23 49.81693
 2018-Aug-18 11:49     13 24 41.691981 -24 23 50.61692
 2018-Aug-18 11:50     13 24 41.778644 -24 23 51.41716
 2018-Aug-18 11:51     13 24 41.865335 -24 23 52.21764
 2018-Aug-18 11:52     13 24 41.952053 -24 23 53.01835
 2018-Aug-18 11:53     13 24 42.038797 -24 23 53.81931
 2018-Aug-18 11:54     13 24 42.125569 -24 23 54.62051
 2018-Aug-18 11:55     13 24 42.212367 -24 23 55.42196
 2018-Aug-18 11:56     13 24 42.299192 -24 23 56.22365
 2018-Aug-18 11:57     13 24 42.386043 -24 23 57.02558
 2018-Aug-18 11:58     13 24 42.472920 -24 23 57.82775
 2018-Aug-18 11:59     13 24 42.559823 -24 23 58.63018
 2018-Aug-18 12:00     13 24 42.646752 -24 23 59.43285
 2018-Aug-18 12:01     13 24 42.733706 -24 24 00.23576
 2018-Aug-18 12:02     13 24 42.820686 -24 24 01.03892
 2018-Aug-18 12:03     13 24 42.907691 -24 24 01.84234
 2018-Aug-18 12:04     13 24 42.994720 -24 24 02.64600
 2018-Aug-18 12:05     13 24 43.081774 -24 24 03.44990
 2018-Aug-18 12:06     13 24 43.168853 -24 24 04.25406
 2018-Aug-18 12:07     13 24 43.255957 -24 24 05.05847
 2018-Aug-18 12:08     13 24 43.343084 -24 24 05.86313
 2018-Aug-18 12:09     13 24 43.430235 -24 24 06.66805
 2018-Aug-18 12:10     13 24 43.517410 -24 24 07.47321
 2018-Aug-18 12:11     13 24 43.604609 -24 24 08.27863
 2018-Aug-18 12:12     13 24 43.691831 -24 24 09.08430
 2018-Aug-18 12:13     13 24 43.779076 -24 24 09.89023
 2018-Aug-18 12:14     13 24 43.866344 -24 24 10.69641
 2018-Aug-18 12:15     13 24 43.953635 -24 24 11.50285
 2018-Aug-18 12:16     13 24 44.040949 -24 24 12.30954
 2018-Aug-18 12:17     13 24 44.128285 -24 24 13.11649
 2018-Aug-18 12:18     13 24 44.215643 -24 24 13.92369
 2018-Aug-18 12:19     13 24 44.303023 -24 24 14.73116
 2018-Aug-18 12:20     13 24 44.390425 -24 24 15.53888
 2018-Aug-18 12:21     13 24 44.477848 -24 24 16.34686
 2018-Aug-18 12:22     13 24 44.565293 -24 24 17.15510
 2018-Aug-18 12:23     13 24 44.652759 -24 24 17.96360
 2018-Aug-18 12:24     13 24 44.740246 -24 24 18.77236
 2018-Aug-18 12:25     13 24 44.827754 -24 24 19.58138
 2018-Aug-18 12:26     13 24 44.915282 -24 24 20.39066
 2018-Aug-18 12:27     13 24 45.002831 -24 24 21.20020
 2018-Aug-18 12:28     13 24 45.090399 -24 24 22.01001
 2018-Aug-18 12:29     13 24 45.177988 -24 24 22.82008
 2018-Aug-18 12:30     13 24 45.265597 -24 24 23.63041
 2018-Aug-18 12:31     13 24 45.353225 -24 24 24.44101
 2018-Aug-18 12:32     13 24 45.440872 -24 24 25.25187
 2018-Aug-18 12:33     13 24 45.528539 -24 24 26.06300
 2018-Aug-18 12:34     13 24 45.616225 -24 24 26.87439
 2018-Aug-18 12:35     13 24 45.703929 -24 24 27.68604
 2018-Aug-18 12:36     13 24 45.791652 -24 24 28.49797
 2018-Aug-18 12:37     13 24 45.879393 -24 24 29.31016
 2018-Aug-18 12:38     13 24 45.967152 -24 24 30.12262
 2018-Aug-18 12:39     13 24 46.054929 -24 24 30.93534
 2018-Aug-18 12:40     13 24 46.142724 -24 24 31.74834
 2018-Aug-18 12:41     13 24 46.230536 -24 24 32.56160
 2018-Aug-18 12:42     13 24 46.318366 -24 24 33.37513
 2018-Aug-18 12:43     13 24 46.406213 -24 24 34.18893
 2018-Aug-18 12:44     13 24 46.494076 -24 24 35.00300
 2018-Aug-18 12:45     13 24 46.581956 -24 24 35.81734
 2018-Aug-18 12:46     13 24 46.669853 -24 24 36.63196
 2018-Aug-18 12:47     13 24 46.757766 -24 24 37.44684
 2018-Aug-18 12:48     13 24 46.845695 -24 24 38.26199
 2018-Aug-18 12:49     13 24 46.933640 -24 24 39.07742
 2018-Aug-18 12:50     13 24 47.021600 -24 24 39.89312
 2018-Aug-18 12:51     13 24 47.109576 -24 24 40.70909
 2018-Aug-18 12:52     13 24 47.197566 -24 24 41.52534
 2018-Aug-18 12:53     13 24 47.285572 -24 24 42.34186
 2018-Aug-18 12:54     13 24 47.373593 -24 24 43.15865
 2018-Aug-18 12:55     13 24 47.461628 -24 24 43.97572
 2018-Aug-18 12:56     13 24 47.549678 -24 24 44.79306
 2018-Aug-18 12:57     13 24 47.637741 -24 24 45.61068
 2018-Aug-18 12:58     13 24 47.725819 -24 24 46.42857
 2018-Aug-18 12:59     13 24 47.813910 -24 24 47.24674
 2018-Aug-18 13:00     13 24 47.902014 -24 24 48.06518
 2018-Aug-18 13:01     13 24 47.990132 -24 24 48.88390
 2018-Aug-18 13:02     13 24 48.078263 -24 24 49.70290
 2018-Aug-18 13:03     13 24 48.166407 -24 24 50.52218
 2018-Aug-18 13:04     13 24 48.254564 -24 24 51.34173
 2018-Aug-18 13:05     13 24 48.342732 -24 24 52.16156
 2018-Aug-18 13:06     13 24 48.430913 -24 24 52.98167
 2018-Aug-18 13:07     13 24 48.519106 -24 24 53.80206
 2018-Aug-18 13:08     13 24 48.607311 -24 24 54.62272
 2018-Aug-18 13:09     13 24 48.695527 -24 24 55.44367
